STARLINK-3289
1 50173U 21125T   22139.25001157 -.00061549  00000+0 -38792-2 0  9992
2 50173  53.2243   0.9800 0006411 286.3900 283.5646 15.08850285 23746
STARLINK-3292
1 50174U 21125U   22139.25001157 -.00055053  00000+0 -34661-2 0  9997
2 50174  53.2179  11.0523 0002059  40.3401  19.7924 15.08854566 26217
STARLINK-3291
1 50175U 21125V   22139.25001157 -.00029587  00000+0 -18488-2 0  9990
2 50175  53.2173  11.0437 0001730  47.8488 252.3214 15.08834592 26201
STARLINK-3293
1 50176U 21125W   22138.91667824 -.00042508  00000+0 -26681-2 0  9994
2 50176  53.2181  12.5486 0002049  29.6373 358.9375 15.08845136 23558
STARLINK-3282
1 50177U 21125X   22138.83334491 -.00071385  00000+0 -45065-2 0  9999
2 50177  53.2179  12.9232 0002200  37.4731 198.1774 15.08882492  1305
STARLINK-3284
1 50178U 21125Y   22139.25001157 -.00053062  00000+0 -33399-2 0  9996
2 50178  53.2160  11.0460 0001981  40.7541 159.4000 15.08846357 26208
STARLINK-3283
1 50179U 21125Z   22139.25001157 -.00016157  00000+0 -99952-3 0  9999
2 50179  53.2176  11.0493 0002240  38.8884 341.2558 15.08831262 26218
STARLINK-3265
1 50180U 21125AA  22138.83334491 -.00061223  00000+0 -38588-2 0  9995
2 50180  53.2177  12.9189 0002109  36.3950 319.2754 15.08864670  1309
STARLINK-3285
1 50181U 21125AB  22139.25001157 -.00020973  00000+0 -13040-2 0  9996
2 50181  53.2175  11.0385 0002107  37.7216 102.4068 15.08824237 26216
STARLINK-3277
1 50182U 21125AC  22139.25001157 -.00032573  00000+0 -20381-2 0  9992
2 50182  53.2180  11.0387 0002141  34.3251 145.8331 15.08833401 26212
STARLINK-3281
1 50183U 21125AD  22138.83334491 -.00058978  00000+0 -37153-2 0  9998
2 50183  53.2194  12.9149 0002514  28.0562  27.6289 15.08865797  1308
STARLINK-3279
1 50185U 21125AF  22139.25001157 -.00033551  00000+0 -20998-2 0  9996
2 50185  53.2172  11.0478 0002124  36.0302  84.0867 15.08838157 26215
STARLINK-3274
1 50186U 21125AG  22138.83334491 -.00047217  00000+0 -29666-2 0  9995
2 50186  53.2180  22.9069 0002318  29.6410 271.0400 15.08857405  1306
STARLINK-3272
1 50187U 21125AH  22138.83334491 -.00057744  00000+0 -36377-2 0  9999
2 50187  53.2159   2.9173 0001701  51.5373  99.1318 15.08856141  1307
STARLINK-3275
1 50188U 21125AJ  22138.83334491 -.00055337  00000+0 -34832-2 0  9990
2 50188  53.2147   2.9133 0001836  44.0944  86.5477 15.08865784  1300
STARLINK-3276
1 50189U 21125AK  22139.25001157 -.00046478  00000+0 -29214-2 0  9992
2 50189  53.2172  11.0455 0001631  57.5731 162.5906 15.08836290 26201
STARLINK-3268
1 50190U 21125AL  22139.25001157 -.00016767  00000+0 -10381-2 0  9997
2 50190  53.2155   1.0432 0001640  49.3313 265.8225 15.08829388 26349
STARLINK-3273
1 50191U 21125AM  22139.25001157 -.00044129  00000+0 -27714-2 0  9999
2 50191  53.2146  21.0643 0002264  32.4516 232.7256 15.08841394 23454
STARLINK-3259
1 50192U 21125AN  22138.83334491 -.00051107  00000+0 -32142-2 0  9998
2 50192  53.2172   2.9174 0001673  52.8619 177.7824 15.08859563  1300
STARLINK-3261
1 50193U 21125AP  22138.83334491 -.00056897  00000+0 -35828-2 0  9994
2 50193  53.2154   2.9140 0001621  51.5427 119.1089 15.08864951  1300
STARLINK-3269
1 50194U 21125AQ  22138.83334491 -.00042460  00000+0 -26640-2 0  9998
2 50194  53.2160   2.9129 0001694  54.9342 195.7308 15.08860569  1303
STARLINK-3266
1 50195U 21125AR  22139.25001157 -.00067297  00000+0 -42472-2 0  9992
2 50195  53.2153   1.0434 0001654  54.8566 240.2398 15.08864715 26341
STARLINK-3263
1 50196U 21125AS  22138.83334491 -.00048125  00000+0 -30236-2 0  9990
2 50196  53.2186   2.9092 0002084  34.1813 256.4696 15.08867162  1300
STARLINK-3267
1 50197U 21125AT  22138.83334491 -.00046226  00000+0 -29037-2 0  9998
2 50197  53.2185   2.9083 0001802  53.3236 217.3457 15.08857151  1307
STARLINK-3264
1 50198U 21125AU  22139.25001157 -.00013013  00000+0 -80104-3 0  9997
2 50198  53.2201   1.0425 0001902  48.7259  46.4235 15.08836904 26351
STARLINK-3270
1 50199U 21125AV  22138.83334491 -.00063633  00000+0 -40120-2 0  9997
2 50199  53.2145   2.9152 0001883  37.7406  52.9251 15.08872314  1309
STARLINK-3235
1 50200U 21125AW  22139.25001157 -.00060360  00000+0 -38039-2 0  9997
2 50200  53.2181   1.0371 0001884  42.0646  13.0530 15.08863808 26359
STARLINK-3255
1 50201U 21125AX  22139.25001157 -.00016745  00000+0 -10365-2 0  9998
2 50201  53.2202   1.0426 0001842  44.7282  70.4131 15.08836568 26351
STARLINK-3256
1 50202U 21125AY  22138.83334491 -.00021784  00000+0 -13541-2 0  9990
2 50202  53.2155   2.9176 0001884  48.3929  62.2548 15.08855822  1308
STARLINK-3257
1 50203U 21125AZ  22138.83334491 -.00066122  00000+0 -41705-2 0  9999
2 50203  53.2205   2.9141 0001558  46.5324 284.1561 15.08878314  1305
STARLINK-3254
1 50204U 21125BA  22138.83334491 -.00053215  00000+0 -33483-2 0  9993
2 50204  53.2187   2.9090 0001914  50.6092  20.0561 15.08861644  1307
STARLINK-3260
1 50205U 21125BB  22138.91667824 -.00717820  00000+0 -17355-1 0  9990
2 50205  53.2175 335.0258 0001457  63.1851 127.9394 15.42969692  1306
STARLINK-3258
1 50206U 21125BC  22139.25001157 -.00057714  00000+0 -36368-2 0  9995
2 50206  53.2186   1.0370 0001819  47.6079 107.5314 15.08845393 24747
STARLINK-3262
1 50207U 21125BD  22139.25001157 -.00015390  00000+0 -95100-3 0  9990
2 50207  53.2184   1.0366 0002021  45.7039  89.4526 15.08835503 24815
TURKSAT 5B
1 50212U 21126A   22138.59206468  .00000148  00000+0  00000+0 0  9999
2 50212   0.0697 325.4481 0003758  33.3175 132.6177  1.00269306  1360
INMARSAT 6-F1
1 50319U 21128A   22136.95833333 -.00000149  00000+0  00000+0 0  9996
2 50319   2.5485 357.9384 3398221 183.4693  65.0246  0.88534029  1334
SHIYAN 12 01 (SY-12 01)
1 50321U 21129A   22138.89023171  .00000136  00000+0  00000+0 0  9991
2 50321   0.2028 246.3367 0002625 269.4035  88.1511  1.00202973  1559
SHIYAN 12 02 (SY-12 02)
1 50322U 21129B   22138.87115487 -.00000256  00000+0  00000+0 0  9996
2 50322   0.2035 246.3956 0000651   2.9870  32.7279  1.00329259  1559
ZY-1 02E
1 50465U 21131A   22139.19614676  .00000091  00000+0  47167-4 0  9993
2 50465  98.5736 215.6519 0001295  84.1243 276.0096 14.35345120 20671
XW-3 (CAS-9)
1 50466U 21131B   22138.54076990  .00000405  00000+0  14721-3 0  9991
2 50466  98.5807 215.8080 0003743 223.8049 136.2842 14.38485989 20613
ONEWEB-0389
1 50469U 21132A   22138.91667824 -.01372109  00000+0 -25884+0 0  9992
2 50469  87.2952 305.8843 0005607 110.6450  14.5401 14.68021688  1308
ONEWEB-0390
1 50470U 21132B   22138.91667824 -.01354653  00000+0 -25150+0 0  9994
2 50470  87.2941 305.9494 0003707 136.7895 168.7572 14.68694416  1308
ONEWEB-0391
1 50471U 21132C   22139.25001157 -.01088023  00000+0 -21479+0 0  9999
2 50471  87.3031 305.7553 0004140 121.4439  14.0398 14.65790559 22686
ONEWEB-0392
1 50472U 21132D   22138.91667824 -.01343277  00000+0 -24311+0 0  9994
2 50472  87.2896 305.9233 0005680 100.5768 316.9930 14.69769814  1301
ONEWEB-0393
1 50473U 21132E   22138.91667824 -.01288478  00000+0 -23253+0 0  9990
2 50473  87.2993 305.8983 0005587 116.5446 233.7810 14.69760258 22643
ONEWEB-0394
1 50474U 21132F   22139.25001157  .00025641  00000+0  24950-2 0  9996
2 50474  87.2212 305.7654 0003328 136.0362 246.0189 14.92422721 22672
ONEWEB-0395
1 50475U 21132G   22138.91667824  .00041690  00000+0  11710+0 0  9997
2 50475  88.0047 317.1680 0001765 103.9993 156.3356 13.11397358  1303
ONEWEB-0396
1 50476U 21132H   22138.91667824  .00043861  00000+0  42585-2 0  9997
2 50476  87.2246 305.9372 0005611  93.6219  64.0465 14.92417591  1307
ONEWEB-0397
1 50477U 21132J   22139.25001157  .00025256  00000+0  24590-2 0  9991
2 50477  87.2254 305.8319 0004343 125.4380 219.8694 14.92398623 22672
ONEWEB-0398
1 50478U 21132K   22138.91667824  .00037527  00000+0  10544+0 0  9998
2 50478  87.8862 317.3378 0001629 116.7054 291.7966 13.11403772  1302
ONEWEB-0399
1 50479U 21132L   22138.91667824  .00040884  00000+0  11494+0 0  9994
2 50479  87.8853 317.3541 0001931  79.7235  32.5260 13.11340764  1309
ONEWEB-0400
1 50480U 21132M   22139.25001157  .00027586  00000+0  26823-2 0  9994
2 50480  87.2202 305.7189 0003788 101.2199 170.4641 14.92443589 22705
ONEWEB-0401
1 50481U 21132N   22139.25001157  .00029064  00000+0  28291-2 0  9999
2 50481  87.2228 305.7791 0003238 130.0151   5.4783 14.92394140 22680
ONEWEB-0402
1 50482U 21132P   22139.25001157  .00027417  00000+0  26656-2 0  9993
2 50482  87.2231 305.7860 0003628 128.3968 143.9436 14.92448020 22692
ONEWEB-0403
1 50483U 21132Q   22139.25001157  .00024760  00000+0  24083-2 0  9994
2 50483  87.2203 305.7406 0002096 110.8817 232.1847 14.92445089 22694
ONEWEB-0404
1 50484U 21132R   22139.25001157 -.00000044  00000+0 -15872-3 0  9993
2 50484  88.0012 316.9583 0002784  98.9038 273.0271 13.11407220 21685
ONEWEB-0405
1 50485U 21132S   22139.25001157  .00025156  00000+0  24467-2 0  9992
2 50485  87.2979 306.8130 0005094  87.0002 170.2976 14.92438622 22694
ONEWEB-0406
1 50486U 21132T   22139.25001157  .00029068  00000+0  28383-2 0  9990
2 50486  87.2252 305.8159 0006388  91.4493  76.6224 14.92259705 22686
ONEWEB-0407
1 50487U 21132U   22139.25001157  .00027224  00000+0  26485-2 0  9994
2 50487  87.2167 305.6755 0005503  88.1857 333.4099 14.92416942 22690
ONEWEB-0409
1 50488U 21132V   22139.25001157 -.00000514  00000+0 -14850-2 0  9993
2 50488  87.8877 317.3050 0002758 111.6704 228.4669 13.11407164 21584
ONEWEB-0412
1 50489U 21132W   22139.25001157  .00027273  00000+0  26511-2 0  9990
2 50489  87.2216 305.7672 0003832 108.7071 170.2028 14.92455429 22755
ONEWEB-0413
1 50490U 21132X   22139.25001157  .00025612  00000+0  24895-2 0  9990
2 50490  87.2155 305.6399 0004179 139.5237 221.5980 14.92463020 22703
ONEWEB-0414
1 50491U 21132Y   22139.25001157  .00026521  00000+0  25788-2 0  9993
2 50491  87.2197 305.7315 0006032  91.1737 312.1513 14.92437797 22696
ONEWEB-0417
1 50492U 21132Z   22139.25001157  .00028404  00000+0  27629-2 0  9992
2 50492  87.2229 305.7892 0006464  92.4579  10.6293 14.92413876 22686
ONEWEB-0418
1 50493U 21132AA  22139.25001157  .00025321  00000+0  24582-2 0  9993
2 50493  87.2263 305.8599 0005636 123.3499 228.8197 14.92509018 22674
